FENGYUN 1C DEB          
1 29800U 99025CS  17345.32488470  .00001658  00000-0  13434-2 0  9997
2 29800  98.3241 275.1654 0155558  49.8856 104.6561 13.85839691549731
